     2.100          NAVIGATION                              RINEX VERSION / TYPE
fic2rin                                 10/18/2015 00:05:32 PGM / RUN BY / DATE
                                                            END OF HEADER
 7 15 10 17  1 59 44.0  .482710544020D-03 -.795807864051D-12  .000000000000D+00
     .400000000000D+02  .591875000000D+02  .469948146655D-08  .650808263519D+00
     .316463410854D-05  .899272959214D-02  .316649675369D-05  .515369404221D+04
     .525584000000D+06  .186264514923D-08 -.127529398164D+01  .502914190292D-07
     .968512936006D+00  .319187500000D+03 -.269013786642D+01 -.849499670785D-08
     .535736601294D-11  .100000000000D+01  .186600000000D+04  .000000000000D+00
     .240000000000D+01  .000000000000D+00 -.111758708954D-07  .400000000000D+02
     .518406000000D+06  .400000000000D+01
20 15 10 17  1 59 44.0  .363696366549D-03  .295585778076D-11  .000000000000D+00
     .170000000000D+02 -.331250000000D+02  .546487049093D-08  .279969613492D+01
    -.181235373020D-05  .496787053999D-02  .754557549953D-05  .515365462303D+04
     .525584000000D+06  .931322574615D-08  .281177196922D+01 -.912696123123D-07
     .926491843030D+00  .216625000000D+03  .124507910716D+01 -.839856411962D-08
    -.351800368183D-09  .100000000000D+01  .186600000000D+04  .000000000000D+00
     .240000000000D+01  .000000000000D+00 -.838190317154D-08  .170000000000D+02
     .518406000000D+06  .400000000000D+01
 1 15 10 17  2  0  0.0  .252155587077D-05  .795807864051D-12  .000000000000D+00
     .790000000000D+02  .111562500000D+02  .473162566263D-08  .129733348326D+01
     .536441802979D-06  .475986173842D-02  .612810254097D-05  .515365300369D+04
     .525600000000D+06 -.745058059692D-08  .184804103300D+01  .409781932831D-07
     .962601904325D+00  .261843750000D+03  .491384729449D+00 -.817176895841D-08
     .255367779950D-09  .100000000000D+01  .186600000000D+04  .000000000000D+00
     .240000000000D+01  .000000000000D+00  .512227416039D-08  .790000000000D+02
     .518406000000D+06  .400000000000D+01
 2 15 10 17  2  0  0.0  .592966564000D-03  .125055521494D-11  .000000000000D+00
     .300000000000D+02  .134062500000D+02  .514342853016D-08  .187841328236D+01
     .607222318649D-06  .148604004644D-01  .606290996075D-05  .515364354134D+04
     .525600000000D+06 -.366941094398D-06  .180735197375D+01 -.255182385445D-06
     .941275897108D+00  .251687500000D+03 -.222415772322D+01 -.839784980415D-08
     .350371737246D-09  .100000000000D+01  .186600000000D+04  .000000000000D+00
     .240000000000D+01  .000000000000D+00 -.204890966415D-07  .300000000000D+02
     .518406000000D+06  .400000000000D+01
 3 15 10 17  2  0  0.0  .197794288397D-04 -.147792889038D-11  .000000000000D+00
     .310000000000D+02 -.235625000000D+02  .474626912973D-08 -.277765000921D+01
    -.124610960484D-05  .481029972434D-03  .817701220512D-05  .515357814217D+04
     .525600000000D+06  .540167093277D-07  .288902084784D+01  .372529029846D-08
     .959566640431D+00  .225000000000D+03 -.277477677666D+01 -.804069206996D-08
    -.346443002170D-09  .100000000000D+01  .186600000000D+04  .000000000000D+00
     .240000000000D+01  .000000000000D+00  .186264514923D-08  .310000000000D+02
     .518406000000D+06  .400000000000D+01
 4 15 10 17  2  0  0.0 -.333120115101D-04 -.500222085975D-11  .000000000000D+00
     .690000000000D+02  .132812500000D+02  .529629204039D-08  .110465822940D+01
     .603497028351D-06  .119691141881D-01  .613927841187D-05  .515363879776D+04
     .525600000000D+06 -.152736902237D-06  .182245313727D+01  .223517417908D-07
     .940370293763D+00  .251781250000D+03  .111176549798D+01 -.859964392397D-08
     .240724312848D-09  .100000000000D+01  .186600000000D+04  .000000000000D+00
     .240000000000D+01  .000000000000D+00 -.651925802231D-08  .690000000000D+02
     .518406000000D+06  .400000000000D+01
 5 15 10 17  2  0  0.0 -.184349250048D-03  .397903932026D-11  .000000000000D+00
     .530000000000D+02 -.330625000000D+02  .499449375500D-08 -.195992857722D+01
    -.200979411602D-05  .447000563145D-02  .786222517490D-05  .515366004181D+04
     .525600000000D+06  .335276126862D-07  .288011285292D+01 -.745058059692D-07
     .946720268162D+00  .218843750000D+03  .443126669570D+00 -.820498462769D-08
    -.281440294547D-09  .100000000000D+01  .186600000000D+04  .000000000000D+00
     .240000000000D+01  .000000000000D+00 -.107102096081D-07  .530000000000D+02
     .518406000000D+06  .400000000000D+01
 6 15 10 17  2  0  0.0  .780625268817D-04  .704858393874D-11  .000000000000D+00
     .850000000000D+02  .129062500000D+02  .463983612494D-08 -.256151179933D+01
     .808387994766D-06  .209962832741D-03  .611692667007D-05  .515355586433D+04
     .525600000000D+06  .558793544769D-08  .183957068758D+01 -.521540641785D-07
     .962463069010D+00  .260437500000D+03  .275061021848D+01 -.811033782812D-08
     .345728686702D-09  .100000000000D+01  .186600000000D+04  .000000000000D+00
     .240000000000D+01  .000000000000D+00  .419095158577D-08  .850000000000D+02
     .518406000000D+06  .400000000000D+01
 8 15 10 17  2  0  0.0 -.898540019989D-05 -.136424205266D-11  .000000000000D+00
     .660000000000D+02 -.356250000000D+02  .427767818247D-08 -.132939476955D+01
    -.178627669811D-05  .143257423770D-02  .110510736704D-04  .515359263611D+04
     .525600000000D+06  .242143869400D-07  .789436819395D+00  .633299350739D-07
     .960848395124D+00  .166750000000D+03 -.174853197157D+01 -.790104339589D-08
     .273582824394D-09  .100000000000D+01  .186600000000D+04  .000000000000D+00
     .240000000000D+01  .000000000000D+00  .465661287308D-08  .660000000000D+02
     .518406000000D+06  .400000000000D+01
 9 15 10 17  2  0  0.0 -.168057158589D-05  .386535248253D-11  .000000000000D+00
     .210000000000D+02  .715937500000D+02  .453018870054D-08  .291316607375D+01
     .374577939510D-05  .347987632267D-03  .106729567051D-04  .515372061348D+04
     .525600000000D+06 -.204890966415D-07 -.235290022104D+01  .186264514923D-08
     .956659109766D+00  .172468750000D+03  .244031964115D+01 -.798640409436D-08
     .221437795202D-10  .100000000000D+01  .186600000000D+04  .000000000000D+00
     .240000000000D+01  .000000000000D+00  .931322574615D-09  .210000000000D+02
     .518406000000D+06  .400000000000D+01
11 15 10 17  2  0  0.0 -.610614195466D-03 -.227373675443D-11  .000000000000D+00
     .710000000000D+02  .178750000000D+02  .627597570529D-08  .739169105063D+00
     .886619091034D-06  .162998597370D-01  .756047666073D-05  .515362874794D+04
     .525600000000D+06 -.184401869774D-06  .148685001464D+01 -.763684511185D-07
     .894047860293D+00  .202000000000D+03  .146934937436D+01 -.916181019760D-08
     .375372778640D-09  .100000000000D+01  .186600000000D+04  .000000000000D+00
     .240000000000D+01  .000000000000D+00 -.121071934700D-07  .710000000000D+02
     .518406000000D+06  .400000000000D+01
12 15 10 17  2  0  0.0  .337453093380D-03  .329691829393D-11  .000000000000D+00
     .590000000000D+02 -.827187500000D+02  .389873382648D-08  .192931835060D+00
    -.435672700405D-05  .551078899298D-02  .636838376522D-05  .515359569550D+04
     .525600000000D+06  .745058059692D-08 -.203747652165D+00  .614672899246D-07
     .990384692126D+00  .270937500000D+03  .646619156638D+00 -.793675916931D-08
    -.351443210449D-09  .100000000000D+01  .186600000000D+04  .000000000000D+00
     .240000000000D+01  .000000000000D+00 -.125728547573D-07  .590000000000D+02
     .518406000000D+06  .400000000000D+01
13 15 10 17  2  0  0.0 -.157267320901D-03 -.284217094304D-11  .000000000000D+00
     .200000000000D+02  .800000000000D+02  .417553107049D-08  .152736507295D+01
     .417977571487D-05  .465288804844D-02  .995583832264D-05  .515368962479D+04
     .525600000000D+06  .987201929092D-07 -.223559392292D+01 -.521540641785D-07
     .973163360937D+00  .194406250000D+03  .205625449130D+01 -.777960976626D-08
     .118933525487D-09  .100000000000D+01  .186600000000D+04  .000000000000D+00
     .240000000000D+01  .000000000000D+00 -.111758708954D-07  .200000000000D+02
     .518406000000D+06  .400000000000D+01
14 15 10 17  2  0  0.0  .277012586594D-04 -.238742359215D-11  .000000000000D+00
     .960000000000D+02  .899687500000D+02  .428624996809D-08 -.284820813690D+01
     .467337667942D-05  .844042049721D-02  .960193574429D-05  .515367537498D+04
     .525600000000D+06  .178813934326D-06 -.227116428155D+01 -.819563865662D-07
     .965680447187D+00  .195125000000D+03 -.194965651507D+01 -.777603818892D-08
     .842892252703D-10  .100000000000D+01  .186600000000D+04  .000000000000D+00
     .340000000000D+01  .000000000000D+00 -.931322574615D-08  .960000000000D+02
     .518406000000D+06  .400000000000D+01
15 15 10 17  2  0  0.0 -.277222599834D-03 -.204636307899D-11  .000000000000D+00
     .220000000000D+02  .707187500000D+02  .501628037678D-08  .273936784372D+01
     .371597707272D-05  .758901203517D-02  .102072954178D-04  .515374200058D+04
     .525600000000D+06 -.104308128357D-06 -.239999493189D+01 -.782310962677D-07
     .932505534987D+00  .168500000000D+03  .414320260433D+00 -.810069456930D-08
     .325013538118D-10  .100000000000D+01  .186600000000D+04  .000000000000D+00
     .240000000000D+01  .000000000000D+00 -.107102096081D-07  .220000000000D+02
     .518406000000D+06  .400000000000D+01
16 15 10 17  2  0  0.0 -.757798552513D-04  .375166564481D-11  .000000000000D+00
     .140000000000D+02 -.956250000000D+02  .380051544958D-08 -.182537324756D+01
    -.493414700031D-05  .812112819403D-02  .679120421410D-05  .515364235687D+04
     .525600000000D+06  .204890966415D-07 -.185038343110D+00 -.558793544769D-07
     .990924511823D+00  .264000000000D+03  .319598539899D+00 -.781496838194D-08
    -.260367988229D-09  .100000000000D+01  .186600000000D+04  .000000000000D+00
     .240000000000D+01  .000000000000D+00 -.102445483208D-07  .140000000000D+02
     .518406000000D+06  .400000000000D+01
